QIANFAN-73              
1 63159U 25046A   25253.20974618  .00000171  00000+0  24561-3 0  9994
2 63159  88.9850 329.6826 0015782  42.2282 318.0081 13.50971266 34786
QIANFAN-74              
1 63160U 25046B   25253.19318418  .00000176  00000+0  25355-3 0  9991
2 63160  88.9849 329.5727 0002169 109.0894 251.0492 13.50977161 34840
QIANFAN-75              
1 63161U 25046C   25253.18096597  .00000186  00000+0  26847-3 0  9990
2 63161  88.9851 329.8061 0016982  44.7850 315.4669 13.50973759 34719
QIANFAN-76              
1 63162U 25046D   25253.17678177  .00000152  00000+0  21731-3 0  9990
2 63162  88.9851 329.7877 0014592  46.6296 313.6068 13.50969516 34724
QIANFAN-77              
1 63163U 25046E   25253.22262533  .00000382  00000+0  26865-3 0  9990
2 63163  88.9846 328.5578 0014871  22.0341 338.1472 13.96040389 35408
QIANFAN-78              
1 63164U 25046F   25253.21797413  .00000170  00000+0  24408-3 0  9996
2 63164  88.9849 329.6485 0016024  47.9938 312.2574 13.50973207 34804
QIANFAN-79              
1 63165U 25046G   25253.17256455  .00000187  00000+0  27080-3 0  9995
2 63165  88.9853 329.7569 0015655  46.7027 313.5427 13.50975465 34741
QIANFAN-80              
1 63166U 25046H   25253.18914037  .00000172  00000+0  24721-3 0  9997
2 63166  88.9850 329.4648 0014811  51.1697 309.0774 13.50975500 34903
